#aV2009 12  9  0  0   .00000000      96 DD+AD WGS84 FIT  NGA
## 1561 259200.00000000   900.00000000 55174  .0000000000000
+   32     1  2  3  4  5  6  7  8  9 10 11 12 13 14 15 16 17
+         18 19 20 21 22 23 24 25 26 27 28 29 30 31 32  0  0
+          0  0  0  0  0  0  0  0  0  0  0  0  0  0  0  0  0
+          0  0  0  0  0  0  0  0  0  0  0  0  0  0  0  0  0
+          0  0  0  0  0  0  0  0  0  0  0  0  0  0  0  0  0
++         0  0  0  0  0  0  0  0  0  0  0  0  0  0  0  0  0
++         0  0  0  0  0  0  0  0  0  0  0  0  0  0  0  0  0
++         0  0  0  0  0  0  0  0  0  0  0  0  0  0  0  0  0
++         0  0  0  0  0  0  0  0  0  0  0  0  0  0  0  0  0
++         0  0  0  0  0  0  0  0  0  0  0  0  0  0  0  0  0
%c cc cc ccc ccc cccc cccc cccc cccc ccccc ccccc ccccc ccccc
%c cc cc ccc ccc cccc cccc cccc cccc ccccc ccccc ccccc ccccc
%f  0.0000000  0.000000000  0.00000000000  0.000000000000000
%f  0.0000000  0.000000000  0.00000000000  0.000000000000000
%i    0    0    0    0      0      0      0      0         0
%i    0    0    0    0      0      0      0      0         0
/*      NGA, ST. LOUIS,MO.                                  
/*   EPHEMERIS COMPUTED FROM  3 DAYS OF DATA                
/* CCCCCCCCCCCCCCCCCCCCCCCCCCCCCCCCCCCCCCCCCCCCCCCCCCCCCCCCC
/* CCCCCCCCCCCCCCCCCCCCCCCCCCCCCCCCCCCCCCCCCCCCCCCCCCCCCCCCC
*  2009 12  9  2 45   .00000000                                                 
P  1  17329.628530 -17386.728438 -10105.887052    -70.071726                    
V  1  12368.971525  -3867.512760  28248.872592      -.026403                    
P  2  13568.028335  13112.128567 -18920.471452    201.294267                    
V  2  -1844.041808  23783.038479  14781.023167       .046262                    
P  3 -24748.686989  -9842.522421   2132.129164    485.339977                    
V  3  -1282.030450  -4579.568406 -30598.487560       .052648                    
P  4   7499.830463  22671.781177 -11384.626723   -397.749745                    
V  4  -3718.197101  14267.416102  26703.398916      -.185768                    
P  5  21399.230508    984.971867 -15767.480524    -31.601511                    
V  5 -16677.558569  11136.023317 -21878.089876       .055768                    
P  6 -23290.327772 -12885.533523     93.573501    263.528232                    
V  6   1820.610078  -3085.669464 -31077.435022       .002864                    
P  7  -7557.965625  23403.533586  -9832.106599      6.311101                    
V  7  -1946.958994 -12586.011992 -28638.464948      -.006475                    
P  8   -897.033913  26125.414292   2586.913120       .639135                    
V  8  -2602.573244   3112.633695 -32545.590086       .004402                    
P  9  13854.922736  -7898.072354  20572.509610     92.977480                    
V  9    766.948928  27614.873921   9823.946607       .021634                    
P 10  18757.459939   5098.231582 -18415.643784    -29.988824                    
V 10 -19860.119639  11553.112419 -16846.627523      -.008385                    
P 11 -13656.208572  11655.255256  19237.451366    -33.293397                    
V 11  -6736.756180 -24538.695409  10326.880378      -.020523                    
P 12  24118.753792 -10660.044102   2576.661954   -179.113432                    
V 12  -1616.971997   3835.558138  31803.076001       .051576                    
P 13  -6344.848483  13260.121642 -22244.687145    306.518753                    
V 13 -22762.993880 -16050.001047  -3106.399579       .001195                    
P 14 -10345.287508 -19286.157915  15276.722113    -14.498005                    
V 14  16467.995694   9659.801000  23441.260232       .046803                    
P 15  23674.881241   5101.370164  11042.541531   -318.504835                    
V 15  10672.880693   9336.305369 -27175.288277       .010850                    
P 16 -16277.325464  -6998.649396 -19818.758182    -17.330563                    
V 16  22048.899029 -12161.483764 -13536.682286      -.042189                    
P 17  11333.042137  19404.249953  14395.740947    110.016246                    
V 17 -16233.087218  -8186.076775  23736.497192       .036944                    
P 18  12012.060527 -18306.054226  15023.738888     33.353024                    
V 18  18037.510957  -6070.420952 -22563.383154       .027607                    
P 19 -22762.189999  -5450.621754  12854.944219     -2.919852                    
V 19 -11765.708299 -11293.044119 -25417.369038      -.020312                    
P 20 -22256.775616  14328.299734  -1919.555619     65.865917                    
V 20  -3737.848552  -1913.905446  31189.142048      -.008411                    
P 21   4722.855112 -25306.371573  -4716.047777    -26.359108                    
V 21   3858.548021   6678.948614 -30742.806520      -.023905                    
P 22   -548.345296 -16737.440936  20765.149049    184.410913                    
V 22  23804.778273 -10742.090062  -8169.057285      -.007751                    
P 23 -17463.542439   4843.230623 -19547.846682    384.737406                    
V 23 -20298.522639 -14005.202529  14388.530090      -.006837                    
P 24  13148.372999 -16260.742691 -16411.284040    243.354567                    
V 24    174.978865  21062.670585 -20346.743085       .032863                    
P 25  -9096.763993  19763.405190 -15018.669127     47.465769                    
V 25  -2933.219159 -19449.917791 -23099.524249       .121296                    
P 26  -1508.764703 -16908.785075  19746.028297     -1.069127                    
V 26  22148.762042  14317.739932  14038.916401      -.024129                    
P 27  14977.053798  -3812.580103  22291.484224    106.760521                    
V 27    867.961589  26596.207080   4160.489186       .034215                    
P 28  -2258.177424  16961.011731  20683.510747    -24.866482                    
V 28 -23137.661026  10315.600525 -11539.290153       .003419                    
P 29   9952.258573 -11583.831127 -21637.917952     80.623809                    
V 29  22966.684142  15480.506164   2306.658294       .030961                    
P 30  18181.389007 -17611.360079  -8329.195799    199.954785                    
V 30  10082.684947  -2751.652710  29240.394683       .032652                    
P 31  -8148.935599 -21419.173173 -13077.290428    -59.146618                    
V 31   2633.487815 -16915.338937  25786.583791       .010170                    
P 32 -25030.814479   6103.345427   6108.698506    141.886835                    
V 32   5614.494552  -5547.640969  30696.387972      -.077648                    
EOF
